NORAD_CAT_ID,OBJECT_NAME,OBJECT_TYPE,EPOCH,MEAN_MOTION,ECCENTRICITY,INCLINATION,RA_OF_ASC_NODE,ARG_OF_PERICENTER,MEAN_ANOMALY,BSTAR,MEAN_MOTION_DOT,MEAN_MOTION_DDOT,TLE_LINE0,TLE_LINE1,TLE_LINE2,SEMIMAJOR_AXIS,PERIOD,APOGEE,PERIGEE,DECAYED
47762,STARLINK-2180,PAYLOAD,2022-02-24 21:40:44,15.06402476,0.0002093,53.0552,2.7132,55.8733,304.2454,5.862399999999999e-05,5.92e-06,0.0,0 STARLINK-2180,1 47762U 21017AS  22055.90329455  .00000592  00000-0  58624-4 0  9993,2 47762  53.0552   2.7132 0002093  55.8733 304.2454 15.06402476 54756,6925.340999999999,95.592,548.655,545.756,0.0
47762,STARLINK-2180,PAYLOAD,2022-02-25 13:36:07,15.06412485,0.0002036,53.0554,359.7346,56.2879,303.8303,0.00019007,2.551e-05,0.0,0 STARLINK-2180,1 47762U 21017AS  22056.56675711  .00002551  00000-0  19007-3 0  9993,2 47762  53.0554 359.7346 0002036  56.2879 303.8303 15.06412485 55506,6925.31,95.591,548.585,545.765,0.0
47762,STARLINK-2180,PAYLOAD,2022-02-25 19:58:17,15.06409299,0.0002012,53.0555,358.5434,59.2228,300.8959,0.00012802,1.626e-05,0.0,0 STARLINK-2180,1 47762U 21017AS  22056.83214514  .00001626  00000-0  12802-3 0  9991,2 47762  53.0555 358.5434 0002012  59.2228 300.8959 15.06409299 55544,6925.32,95.592,548.578,545.7919999999998,0.0
47762,STARLINK-2180,PAYLOAD,2022-02-26 03:55:59,15.06398174,0.0002241,53.0555,357.0543,63.7342,296.3877,7.8123e-05,8.82e-06,0.0,0 STARLINK-2180,1 47762U 21017AS  22057.16388489  .00000882  00000-0  78123-4 0  9993,2 47762  53.0555 357.0543 0002241  63.7342 296.3877 15.06398174 54940,6925.354,95.592,548.771,545.6669999999998,0.0
47762,STARLINK-2180,PAYLOAD,2022-02-26 05:31:31,15.06397661,0.0002081,53.0556,356.7564,57.2721,302.8468,0.00012123,1.524e-05,0.0,0 STARLINK-2180,1 47762U 21017AS  22057.23023120  .00001524  00000-0  12123-3 0  9990,2 47762  53.0556 356.7564 0002081  57.2721 302.8468 15.06397661 55604,6925.356,95.592,548.6619999999998,545.78,0.0
47762,STARLINK-2180,PAYLOAD,2022-02-26 18:15:50,15.06416308,0.0002077,53.0564,354.3738,56.5937,303.525,-5.5095e-05,-1.103e-05,0.0,0 STARLINK-2180,1 47762U 21017AS  22057.76099646 -.00001103  00000-0 -55095-4 0  9995,2 47762  53.0564 354.3738 0002077  56.5937 303.5250 15.06416308 55030,6925.299,95.591,548.602,545.725,0.0
47762,STARLINK-2180,PAYLOAD,2022-02-26 19:51:22,15.06415037,0.0002092,53.0563,354.076,57.2512,302.8678,-1.5919e-05,-5.19e-06,0.0,0 STARLINK-2180,1 47762U 21017AS  22057.82734217 -.00000519  00000-0 -15919-4 0  9993,2 47762  53.0563 354.0760 0002092  57.2512 302.8678 15.06415037 55691,6925.302,95.591,548.616,545.719,0.0
47762,STARLINK-2180,PAYLOAD,2022-02-27 02:13:32,15.06394722,0.0002092,53.055,352.885,53.4233,306.6948,4.8791e-05,4.45e-06,0.0,0 STARLINK-2180,1 47762U 21017AS  22058.09273970  .00000445  00000-0  48791-4 0  9997,2 47762  53.0550 352.8850 0002092  53.4233 306.6948 15.06394722 55083,6925.365,95.592,548.679,545.781,0.0
47762,STARLINK-2180,PAYLOAD,2022-02-27 05:24:37,15.06393998,0.0002046,53.0555,352.2891,56.3188,303.7996,4.5019e-05,3.89e-06,0.0,0 STARLINK-2180,1 47762U 21017AS  22058.22543458  .00000389  00000-0  45019-4 0  9990,2 47762  53.0555 352.2891 0002046  56.3188 303.7996 15.06393998 55756,6925.3669999999975,95.593,548.649,545.815,0.0
47762,STARLINK-2180,PAYLOAD,2022-02-27 22:55:33,15.064055599999998,0.000205,53.0555,349.0127,57.542,302.5767,0.00024149,3.318e-05,0.0,0 STARLINK-2180,1 47762U 21017AS  22058.95524501  .00003318  00000-0  24149-3 0  9993,2 47762  53.0555 349.0127 0002050  57.5420 302.5767 15.06405560 55863,6925.331999999999,95.592,548.616,545.7769999999998,0.0
47762,STARLINK-2180,PAYLOAD,2022-02-28 02:06:37,15.06409041,0.0002063,53.0554,348.4169,57.2417,302.8771,0.00034167,4.812e-05,0.0,0 STARLINK-2180,1 47762U 21017AS  22059.08793780  .00004812  00000-0  34167-3 0  9996,2 47762  53.0554 348.4169 0002063  57.2417 302.8771 15.06409041 55235,6925.321,95.592,548.615,545.757,0.0
47762,STARLINK-2180,PAYLOAD,2022-02-28 05:17:42,15.06409082,0.0002088,53.0554,347.8213,57.9896,302.1296,0.00034038,4.793e-05,0.0,0 STARLINK-2180,1 47762U 21017AS  22059.22063093  .00004793  00000-0  34038-3 0  9994,2 47762  53.0554 347.8213 0002088  57.9896 302.1296 15.06409082 55907,6925.321,95.592,548.632,545.74,0.0
47762,STARLINK-2180,PAYLOAD,2022-02-28 18:02:01,15.06394842,0.00021,53.0554,345.4389,57.8717,302.2475,1.9854e-05,1.4e-07,0.0,0 STARLINK-2180,1 47762U 21017AS  22059.75141090  .00000014  00000-0  19854-4 0  9998,2 47762  53.0554 345.4389 0002100  57.8717 302.2475 15.06394842 55335,6925.364000000001,95.592,548.684,545.775,0.0
47762,STARLINK-2180,PAYLOAD,2022-02-28 21:13:06,15.0639829,0.0002126,53.0555,344.8433,58.5575,301.5621,6.301e-05,6.57e-06,0.0,0 STARLINK-2180,1 47762U 21017AS  22059.88410385  .00000657  00000-0  63010-4 0  9994,2 47762  53.0555 344.8433 0002126  58.5575 301.5621 15.06398290 56008,6925.354,95.592,548.691,545.746,0.0
47762,STARLINK-2180,PAYLOAD,2022-03-01 03:35:15,15.06401184,0.000209,53.0554,343.652,57.9412,302.178,0.0001356,1.739e-05,0.0,0 STARLINK-2180,1 47762U 21017AS  22060.14949007  .00001739  00000-0  13560-3 0  9999,2 47762  53.0554 343.6520 0002090  57.9412 302.1780 15.06401184 56048,6925.345,95.592,548.6569999999998,545.763,0.0
47762,STARLINK-2180,PAYLOAD,2022-03-01 21:06:12,15.0639549,0.0002036,53.0554,340.3756,57.76600000000001,302.3526,2.5352e-05,9.6e-07,0.0,0 STARLINK-2180,1 47762U 21017AS  22060.87930841  .00000096  00000-0  25352-4 0  9993,2 47762  53.0554 340.3756 0002036  57.7660 302.3526 15.06395490 56150,6925.361999999999,95.592,548.637,545.817,0.0
47762,STARLINK-2180,PAYLOAD,2022-03-02 03:28:21,15.06396765,0.0002115,53.0555,339.1846,57.6318,302.4875,4.309e-05,3.6000000000000007e-06,0.0,0 STARLINK-2180,1 47762U 21017AS  22061.14469651  .00000360  00000-0  43090-4 0  9993,2 47762  53.0555 339.1846 0002115  57.6318 302.4875 15.06396765 55540,6925.358,95.592,548.688,545.759,0.0
47762,STARLINK-2180,PAYLOAD,2022-03-02 20:59:17,15.06405377,0.0002081,53.0555,335.9081,58.2544,301.8647,0.00020692,2.802e-05,0.0,0 STARLINK-2180,1 47762U 21017AS  22061.87450769  .00002802  00000-0  20692-3 0  9998,2 47762  53.0555 335.9081 0002081  58.2544 301.8647 15.06405377 56300,6925.331999999999,95.592,548.638,545.756,0.0
47762,STARLINK-2180,PAYLOAD,2022-03-03 01:45:54,15.06408313,0.0002078,53.0555,335.0146,58.538,301.5812,0.00023979,3.293e-05,0.0,0 STARLINK-2180,1 47762U 21017AS  22062.07354626  .00003293  00000-0  23979-3 0  9992,2 47762  53.0555 335.0146 0002078  58.5380 301.5812 15.06408313 55684,6925.323,95.592,548.627,545.749,0.0
47762,STARLINK-2180,PAYLOAD,2022-03-03 17:41:18,15.06404903,0.0002059,53.0553,332.0363,58.968,301.1511,0.00025188,3.473e-05,0.0,0 STARLINK-2180,1 47762U 21017AS  22062.73701541  .00003473  00000-0  25188-3 0  9991,2 47762  53.0553 332.0363 0002059  58.9680 301.1511 15.06404903 55780,6925.334,95.592,548.624,545.773,0.0
47762,STARLINK-2180,PAYLOAD,2022-03-03 20:52:22,15.06401275,0.0002018,53.0554,331.44,59.3516,300.7672,0.00019294,2.593e-05,0.0,0 STARLINK-2180,1 47762U 21017AS  22062.86970999  .00002593  00000-0  19294-3 0  9993,2 47762  53.0554 331.4400 0002018  59.3516 300.7672 15.06401275 56451,6925.345,95.592,548.607,545.812,0.0
47762,STARLINK-2180,PAYLOAD,2022-03-04 03:14:33,15.06388906,0.0001995,53.0553,330.2489,58.9295,301.1889,-6.1287e-05,-1.194e-05,0.0,0 STARLINK-2180,1 47762U 21017AS  22063.13510453 -.00001194  00000-0 -61287-4 0  9997,2 47762  53.0553 330.2489 0001995  58.9295 301.1889 15.06388906 55848,6925.3830000000025,95.593,548.629,545.866,0.0
47762,STARLINK-2180,PAYLOAD,2022-03-04 11:12:14,15.06395907,0.0001934,53.056,328.7593,60.3253,299.7928,6.7285e-05,7.21e-06,0.0,0 STARLINK-2180,1 47762U 21017AS  22063.46683922  .00000721  00000-0  67285-4 0  9992,2 47762  53.0560 328.7593 0001934  60.3253 299.7928 15.06395907 56541,6925.361,95.592,548.565,545.887,0.0
47762,STARLINK-2180,PAYLOAD,2022-03-04 19:09:56,15.06402824,0.0001941,53.0557,327.2703,60.2761,299.8421,1.7062e-05,-2.8e-07,0.0,0 STARLINK-2180,1 47762U 21017AS  22063.79856746 -.00000028  00000-0  17062-4 0  9993,2 47762  53.0557 327.2703 0001941  60.2761 299.8421 15.06402824 55944,6925.34,95.592,548.549,545.861,0.0
47762,STARLINK-2180,PAYLOAD,2022-03-05 03:07:37,15.06405327,0.0002004,53.056,325.7809,65.5029,294.6169,3.6066e-05,2.56e-06,0.0,0 STARLINK-2180,1 47762U 21017AS  22064.13029901  .00000256  00000-0  36066-4 0  9994,2 47762  53.0560 325.7809 0002004  65.5029 294.6169 15.06405327 56645,6925.331999999999,95.592,548.585,545.809,0.0
47762,STARLINK-2180,PAYLOAD,2022-03-05 20:38:33,15.06402483,0.000196,53.0558,322.5051,58.6892,301.4289,0.00025996,3.593e-05,0.0,0 STARLINK-2180,1 47762U 21017AS  22064.86010958  .00003593  00000-0  25996-3 0  9992,2 47762  53.0558 322.5051 0001960  58.6892 301.4289 15.06402483 56108,6925.340999999999,95.592,548.563,545.849,0.0
47762,STARLINK-2180,PAYLOAD,2022-03-05 22:14:05,15.06403756,0.0001949,53.0558,322.2073,58.627,301.4909,0.00027885,3.875e-05,0.0,0 STARLINK-2180,1 47762U 21017AS  22064.92645716  .00003875  00000-0  27885-3 0  9997,2 47762  53.0558 322.2073 0001949  58.6270 301.4909 15.06403756 56761,6925.337,95.592,548.552,545.852,0.0
47762,STARLINK-2180,PAYLOAD,2022-03-06 03:00:43,15.06408213,0.0001974,53.0549,321.3142,58.8492,301.2691,0.00037234,5.27e-05,0.0,0 STARLINK-2180,1 47762U 21017AS  22065.12550008  .00005270  00000-0  37234-3 0  9999,2 47762  53.0549 321.3142 0001974  58.8492 301.2691 15.06408213 56796,6925.323,95.592,548.555,545.821,0.0
47762,STARLINK-2180,PAYLOAD,2022-03-06 20:31:38,15.06409253,0.0001972,53.0548,318.0384,59.843,300.2754,0.00015082,1.966e-05,0.0,0 STARLINK-2180,1 47762U 21017AS  22065.85530985  .00001966  00000-0  15082-3 0  9996,2 47762  53.0548 318.0384 0001972  59.8430 300.2754 15.06409253 56904,6925.32,95.592,548.5509999999998,545.82,0.0
